0 DELTA 1 DEB
1 07037U 73086AD  13282.89081106  .00000104  00000-0  17972-2 0  9364
2 07037 102.0609 034.2904 0323066 044.8665 065.3682 11.86393951728791
0 DELTA 1 DEB
1 07037U 73086AD  13285.31571968  .00000150  00000-0  23771-2 0  9370
2 07037 102.0614 036.4612 0322994 040.7733 342.2277 11.86394445729086
0 DELTA 1 DEB
1 07037U 73086AD  13288.52902931  .00000270  00000-0  38968-2 0  9382
2 07037 102.0619 039.3377 0322923 035.3591 026.3745 11.86395435729467
0 DELTA 1 DEB
1 07037U 73086AD  13291.30267728  .00000188  00000-0  28557-2 0  9392
2 07037 102.0618 041.8208 0322878 030.6837 352.7192 11.86397124729792
0 DELTA 1 DEB
1 07037U 73086AD  13293.78234789  .00000315  00000-0  44690-2 0  9407
2 07037 102.0615 044.0407 0322865 026.5102 143.4919 11.86397462730081
0 DELTA 1 DEB
1 07037U 73086AD  13295.87708899  .00000241  00000-0  35380-2 0  9412
2 07037 102.0615 045.9161 0322843 022.9776 090.2196 11.86399321730331
